ONEWEB-0549             
1 56051U 23043F   25115.09383321  .00000118  00000+0  25530-3 0  9999
2 56051  87.9268 327.3652 0001376  89.1369 270.9922 13.21826335102996
ONEWEB-0550             
1 56052U 23043G   25115.83818638  .00000106  00000+0  22514-3 0  9992
2 56052  87.9266 327.2135 0001953  84.7351 275.4006 13.21825535103099
ONEWEB-0551             
1 56053U 23043H   25115.90473118  .00000003  00000+0 -25035-4 0  9990
2 56053  87.9084 342.3999 0001487  78.7112 281.4186 13.15547090101537
ONEWEB-0552             
1 56054U 23043J   25115.83187152  .00000109  00000+0  23228-3 0  9990
2 56054  87.9262 327.2239 0001636  75.9323 284.1993 13.21826441103090
ONEWEB-0553             
1 56055U 23043K   25115.50264925 -.00000007  00000+0 -51363-4 0  9990
2 56055  87.9018 312.0394 0002107  94.4354 265.7018 13.16596171104012
ONEWEB-0554             
1 56056U 23043L   25115.79394751 -.00000020  00000+0 -86398-4 0  9994
2 56056  87.9036 312.0102 0001934  83.0077 277.1274 13.16596112104031
ONEWEB-0555             
1 56057U 23043M   25115.83194134  .00000134  00000+0  31645-3 0  9991
2 56057  87.9022 311.9675 0002259  98.4194 261.7193 13.16597001104049
ONEWEB-0557             
1 56058U 23043N   25115.77020132 -.00000210  00000+0 -58292-3 0  9995
2 56058  87.9021 312.0039 0002699  90.7013 269.4427 13.16593460104037
